[
  {
    "OBJECT_NAME": "STARLINK-32903",
    "OBJECT_ID": "25037P",
    "EPOCH": "2025-11-11T07:16:47.637696",
    "MEAN_MOTION": 14.98355573,
    "ECCENTRICITY": 0.00026,
    "INCLINATION": 70.0002,
    "RA_OF_ASC_NODE": 292.7621,
    "ARG_OF_PERICENTER": 275.1404,
    "MEAN_ANOMALY": 84.9459,
    "EPHEMERIS_TYPE": 0,
    "CLASSIFICATION_TYPE": "U",
    "NORAD_CAT_ID": 63090,
    "ELEMENT_SET_NO": 999,
    "REV_AT_EPOCH": 4073,
    "BSTAR": 0.00074182,
    "MEAN_MOTION_DOT": 8.775e-05,
    "MEAN_MOTION_DDOT": 0.0,
    "TLE_LINE1": "1 63090U 25037P   25315.30332914  .00008775  00000+0  74182-3 0  9997",
    "TLE_LINE2": "2 63090  70.0002 292.7621 0002600 275.1404  84.9459 14.98355573 40732",
    "COMMENT": "Grouped by shell and plane from TLE"
  },
  {
    "OBJECT_NAME": "STARLINK-32925",
    "OBJECT_ID": "25037Q",
    "EPOCH": "2025-11-11T07:22:46.953696",
    "MEAN_MOTION": 14.98341043,
    "ECCENTRICITY": 0.0003434,
    "INCLINATION": 70.0001,
    "RA_OF_ASC_NODE": 292.7713,
    "ARG_OF_PERICENTER": 270.5401,
    "MEAN_ANOMALY": 89.5365,
    "EPHEMERIS_TYPE": 0,
    "CLASSIFICATION_TYPE": "U",
    "NORAD_CAT_ID": 63091,
    "ELEMENT_SET_NO": 999,
    "REV_AT_EPOCH": 4081,
    "BSTAR": 0.00045989,
    "MEAN_MOTION_DOT": 5.4e-05,
    "MEAN_MOTION_DDOT": 0.0,
    "TLE_LINE1": "1 63091U 25037Q   25315.30748789  .00005400  00000+0  45989-3 0  9994",
    "TLE_LINE2": "2 63091  70.0001 292.7713 0003434 270.5401  89.5365 14.98341043 40819",
    "COMMENT": "Grouped by shell and plane from TLE"
  },
  {
    "OBJECT_NAME": "STARLINK-32924",
    "OBJECT_ID": "25037R",
    "EPOCH": "2025-11-11T05:58:40.267488",
    "MEAN_MOTION": 14.98339731,
    "ECCENTRICITY": 0.0003435,
    "INCLINATION": 70.0002,
    "RA_OF_ASC_NODE": 292.9721,
    "ARG_OF_PERICENTER": 269.2174,
    "MEAN_ANOMALY": 90.8592,
    "EPHEMERIS_TYPE": 0,
    "CLASSIFICATION_TYPE": "U",
    "NORAD_CAT_ID": 63092,
    "ELEMENT_SET_NO": 999,
    "REV_AT_EPOCH": 4086,
    "BSTAR": 0.00045799,
    "MEAN_MOTION_DOT": 5.377e-05,
    "MEAN_MOTION_DDOT": 0.0,
    "TLE_LINE1": "1 63092U 25037R   25315.24907717  .00005377  00000+0  45799-3 0  9998",
    "TLE_LINE2": "2 63092  70.0002 292.9721 0003435 269.2174  90.8592 14.98339731 40868",
    "COMMENT": "Grouped by shell and plane from TLE"
  },
  {
    "OBJECT_NAME": "STARLINK-32900",
    "OBJECT_ID": "25037S",
    "EPOCH": "2025-11-11T06:16:43.288896",
    "MEAN_MOTION": 14.98357539,
    "ECCENTRICITY": 0.0003582,
    "INCLINATION": 69.9997,
    "RA_OF_ASC_NODE": 293.013,
    "ARG_OF_PERICENTER": 274.2452,
    "MEAN_ANOMALY": 85.8297,
    "EPHEMERIS_TYPE": 0,
    "CLASSIFICATION_TYPE": "U",
    "NORAD_CAT_ID": 63093,
    "ELEMENT_SET_NO": 999,
    "REV_AT_EPOCH": 4072,
    "BSTAR": 0.0009671800000000001,
    "MEAN_MOTION_DOT": 0.00011475,
    "MEAN_MOTION_DDOT": 0.0,
    "TLE_LINE1": "1 63093U 25037S   25315.26161214  .00011475  00000+0  96718-3 0  9998",
    "TLE_LINE2": "2 63093  69.9997 293.0130 0003582 274.2452  85.8297 14.98357539 40720",
    "COMMENT": "Grouped by shell and plane from TLE"
  },
  {
    "OBJECT_NAME": "STARLINK-32927",
    "OBJECT_ID": "25037T",
    "EPOCH": "2025-11-11T06:58:47.419968",
    "MEAN_MOTION": 14.98344999,
    "ECCENTRICITY": 0.0002988,
    "INCLINATION": 70.0006,
    "RA_OF_ASC_NODE": 293.1176,
    "ARG_OF_PERICENTER": 267.7619,
    "MEAN_ANOMALY": 92.3198,
    "EPHEMERIS_TYPE": 0,
    "CLASSIFICATION_TYPE": "U",
    "NORAD_CAT_ID": 63094,
    "ELEMENT_SET_NO": 999,
    "REV_AT_EPOCH": 4081,
    "BSTAR": 0.00077181,
    "MEAN_MOTION_DOT": 9.132e-05,
    "MEAN_MOTION_DDOT": 0.0,
    "TLE_LINE1": "1 63094U 25037T   25315.29082662  .00009132  00000+0  77181-3 0  9991",
    "TLE_LINE2": "2 63094  70.0006 293.1176 0002988 267.7619  92.3198 14.98344999 40816",
    "COMMENT": "Grouped by shell and plane from TLE"
  },
  {
    "OBJECT_NAME": "STARLINK-32907",
    "OBJECT_ID": "25037U",
    "EPOCH": "2025-11-11T06:40:44.922144",
    "MEAN_MOTION": 14.98345814,
    "ECCENTRICITY": 0.000291,
    "INCLINATION": 70.0008,
    "RA_OF_ASC_NODE": 293.0702,
    "ARG_OF_PERICENTER": 272.4954,
    "MEAN_ANOMALY": 87.5872,
    "EPHEMERIS_TYPE": 0,
    "CLASSIFICATION_TYPE": "U",
    "NORAD_CAT_ID": 63095,
    "ELEMENT_SET_NO": 999,
    "REV_AT_EPOCH": 4081,
    "BSTAR": 0.0006697300000000001,
    "MEAN_MOTION_DOT": 7.91e-05,
    "MEAN_MOTION_DDOT": 0.0,
    "TLE_LINE1": "1 63095U 25037U   25315.27829771  .00007910  00000+0  66973-3 0  9999",
    "TLE_LINE2": "2 63095  70.0008 293.0702 0002910 272.4954  87.5872 14.98345814 40815",
    "COMMENT": "Grouped by shell and plane from TLE"
  },
  {
    "OBJECT_NAME": "STARLINK-32911",
    "OBJECT_ID": "25037V",
    "EPOCH": "2025-11-11T07:10:49.510560",
    "MEAN_MOTION": 14.98354645,
    "ECCENTRICITY": 0.0003067,
    "INCLINATION": 70.0001,
    "RA_OF_ASC_NODE": 293.1425,
    "ARG_OF_PERICENTER": 268.09,
    "MEAN_ANOMALY": 91.9908,
    "EPHEMERIS_TYPE": 0,
    "CLASSIFICATION_TYPE": "U",
    "NORAD_CAT_ID": 63096,
    "ELEMENT_SET_NO": 999,
    "REV_AT_EPOCH": 4086,
    "BSTAR": 0.00076877,
    "MEAN_MOTION_DOT": 9.098e-05,
    "MEAN_MOTION_DDOT": 0.0,
    "TLE_LINE1": "1 63096U 25037V   25315.29918415  .00009098  00000+0  76877-3 0  9999",
    "TLE_LINE2": "2 63096  70.0001 293.1425 0003067 268.0900  91.9908 14.98354645 40864",
    "COMMENT": "Grouped by shell and plane from TLE"
  },
  {
    "OBJECT_NAME": "STARLINK-32923",
    "OBJECT_ID": "25037W",
    "EPOCH": "2025-11-11T05:52:39.533664",
    "MEAN_MOTION": 14.98346707,
    "ECCENTRICITY": 0.0002895,
    "INCLINATION": 70.0001,
    "RA_OF_ASC_NODE": 292.9565,
    "ARG_OF_PERICENTER": 269.6339,
    "MEAN_ANOMALY": 90.4488,
    "EPHEMERIS_TYPE": 0,
    "CLASSIFICATION_TYPE": "U",
    "NORAD_CAT_ID": 63097,
    "ELEMENT_SET_NO": 999,
    "REV_AT_EPOCH": 4086,
    "BSTAR": 0.00054043,
    "MEAN_MOTION_DOT": 6.364e-05,
    "MEAN_MOTION_DDOT": 0.0,
    "TLE_LINE1": "1 63097U 25037W   25315.24490201  .00006364  00000+0  54043-3 0  9997",
    "TLE_LINE2": "2 63097  70.0001 292.9565 0002895 269.6339  90.4488 14.98346707 40865",
    "COMMENT": "Grouped by shell and plane from TLE"
  },
  {
    "OBJECT_NAME": "STARLINK-32913",
    "OBJECT_ID": "25037X",
    "EPOCH": "2025-11-11T06:10:41.666880",
    "MEAN_MOTION": 14.9833913,
    "ECCENTRICITY": 0.000307,
    "INCLINATION": 69.9998,
    "RA_OF_ASC_NODE": 292.9922,
    "ARG_OF_PERICENTER": 270.6729,
    "MEAN_ANOMALY": 89.4079,
    "EPHEMERIS_TYPE": 0,
    "CLASSIFICATION_TYPE": "U",
    "NORAD_CAT_ID": 63098,
    "ELEMENT_SET_NO": 999,
    "REV_AT_EPOCH": 4087,
    "BSTAR": 0.0005455400000000001,
    "MEAN_MOTION_DOT": 6.424e-05,
    "MEAN_MOTION_DDOT": 0.0,
    "TLE_LINE1": "1 63098U 25037X   25315.25742670  .00006424  00000+0  54554-3 0  9993",
    "TLE_LINE2": "2 63098  69.9998 292.9922 0003070 270.6729  89.4079 14.98339130 40873",
    "COMMENT": "Grouped by shell and plane from TLE"
  }
]